STARLINK-30538          
1 57994U 23153D   25211.45108998 -.00000091  00000+0  83056-5 0  9990
2 57994  43.0020 196.5276 0001102 282.5213  77.5506 15.02535486101346
STARLINK-30517          
1 57995U 23153E   25211.44775759  .00000103  00000+0  22676-4 0  9998
2 57995  43.0019 196.5032 0001264 288.3411  71.7294 15.02536877101455
STARLINK-30523          
1 57997U 23153G   25210.65668526  .00000168  00000+0  27498-4 0  9993
2 57997  43.0024 200.8916 0001513 276.4205  83.6465 15.02533863101329
STARLINK-30531          
1 57998U 23153H   25211.41779055  .00000521  00000+0  53621-4 0  9999
2 57998  43.0022 196.2851 0001293 290.3055  69.7648 15.02535645101448
STARLINK-30552          
1 57999U 23153J   25211.24167834  .00001192  00000+0  10327-3 0  9997
2 57999  43.0023 197.5389 0001002 252.3249 107.7484 15.02543935101421
STARLINK-30545          
1 58000U 23153K   25211.30481048  .00000562  00000+0  56644-4 0  9997
2 58000  43.0009 197.1490 0001042 283.4106  76.6620 15.02538043101430
STARLINK-30535          
1 58001U 23153L   25211.23500607 -.00000055  00000+0  11016-4 0  9995
2 58001  43.0024 197.4863 0001297 288.2770  71.7931 15.02534022101420
STARLINK-30540          
1 58002U 23153M   25211.27161499 -.00014653  00000+0 -10698-2 0  9995
2 58002  43.0016 197.7447 0001709 282.1318  77.9333 15.02608988101317
STARLINK-30546          
1 58003U 23153N   25211.23167734  .00000234  00000+0  32412-4 0  9998
2 58003  43.0022 197.4603 0001541 307.9193  52.1510 15.02538982101427
STARLINK-30539          
1 58004U 23153P   25211.22834704 -.00000022  00000+0  13467-4 0  9991
2 58004  43.0027 197.4382 0001319 285.6678  74.4018 15.02533473101419
STARLINK-30530          
1 58005U 23153Q   25211.42112375 -.00001641  00000+0 -10642-3 0  9997
2 58005  43.0020 196.3016 0001488 321.4831  38.5905 15.02544610101457
STARLINK-30526          
1 58006U 23153R   25210.37141835  .00000136  00000+0  25126-4 0  9994
2 58006  43.0013 176.9959 0001300 272.3333  87.7361 15.02535899101578
STARLINK-30527          
1 58007U 23153S   25210.74798910  .00000880  00000+0  41510-4 0  9999
2 58007  43.0019  17.4353 0001280 278.0044  82.0662 15.27577640103369
STARLINK-30522          
1 58008U 23153T   25211.44443208 -.00001714  00000+0 -11185-3 0  9998
2 58008  43.0022 196.4716 0001284 271.2652  88.8043 15.02532658101446
STARLINK-30486          
1 58009U 23153U   25210.69319281 -.00000263  00000+0 -43977-5 0  9992
2 58009  43.0025 200.2963 0001331 285.4147  74.6549 15.02535953101239
STARLINK-30520          
1 58010U 23153V   25210.68332149  .00000133  00000+0  24918-4 0  9998
2 58010  43.0022 201.0697 0001493 299.6216  60.4477 15.02532953101223
STARLINK-30497          
1 58011U 23153W   25210.67999171 -.00000110  00000+0  69551-5 0  9991
2 58011  43.0016 201.0437 0001469 291.0871  68.9814 15.02533062101326
