[{"OBJECT_NAME":"STARLINK-30538","OBJECT_ID":"2023-153D","EPOCH":"2025-07-30T10:49:34.174272","MEAN_MOTION":15.02535486,"ECCENTRICITY":0.0001102,"INCLINATION":43.002,"RA_OF_ASC_NODE":196.5276,"ARG_OF_PERICENTER":282.5213,"MEAN_ANOMALY":77.5506,"EPHEMERIS_TYPE":0,"CLASSIFICATION_TYPE":"U","NORAD_CAT_ID":57994,"ELEMENT_SET_NO":999,"REV_AT_EPOCH":10134,"BSTAR":8.3056e-6,"MEAN_MOTION_DOT":-9.1e-7,"MEAN_MOTION_DDOT":0},{"OBJECT_NAME":"STARLINK-30517","OBJECT_ID":"2023-153E","EPOCH":"2025-07-30T10:44:46.255776","MEAN_MOTION":15.02536877,"ECCENTRICITY":0.0001264,"INCLINATION":43.0019,"RA_OF_ASC_NODE":196.5032,"ARG_OF_PERICENTER":288.3411,"MEAN_ANOMALY":71.7294,"EPHEMERIS_TYPE":0,"CLASSIFICATION_TYPE":"U","NORAD_CAT_ID":57995,"ELEMENT_SET_NO":999,"REV_AT_EPOCH":10145,"BSTAR":2.2676e-5,"MEAN_MOTION_DOT":1.03e-6,"MEAN_MOTION_DDOT":0},{"OBJECT_NAME":"STARLINK-30523","OBJECT_ID":"2023-153G","EPOCH":"2025-07-29T15:45:37.606464","MEAN_MOTION":15.02533863,"ECCENTRICITY":0.0001513,"INCLINATION":43.0024,"RA_OF_ASC_NODE":200.8916,"ARG_OF_PERICENTER":276.4205,"MEAN_ANOMALY":83.6465,"EPHEMERIS_TYPE":0,"CLASSIFICATION_TYPE":"U","NORAD_CAT_ID":57997,"ELEMENT_SET_NO":999,"REV_AT_EPOCH":10132,"BSTAR":2.7498e-5,"MEAN_MOTION_DOT":1.68e-6,"MEAN_MOTION_DDOT":0},{"OBJECT_NAME":"STARLINK-30531","OBJECT_ID":"2023-153H","EPOCH":"2025-07-30T10:01:37.103520","MEAN_MOTION":15.02535645,"ECCENTRICITY":0.0001293,"INCLINATION":43.0022,"RA_OF_ASC_NODE":196.2851,"ARG_OF_PERICENTER":290.3055,"MEAN_ANOMALY":69.7648,"EPHEMERIS_TYPE":0,"CLASSIFICATION_TYPE":"U","NORAD_CAT_ID":57998,"ELEMENT_SET_NO":999,"REV_AT_EPOCH":10144,"BSTAR":5.3621e-5,"MEAN_MOTION_DOT":5.21e-6,"MEAN_MOTION_DDOT":0},{"OBJECT_NAME":"STARLINK-30552","OBJECT_ID":"2023-153J","EPOCH":"2025-07-30T05:48:01.008576","MEAN_MOTION":15.02543935,"ECCENTRICITY":0.0001002,"INCLINATION":43.0023,"RA_OF_ASC_NODE":197.5389,"ARG_OF_PERICENTER":252.3249,"MEAN_ANOMALY":107.7484,"EPHEMERIS_TYPE":0,"CLASSIFICATION_TYPE":"U","NORAD_CAT_ID":57999,"ELEMENT_SET_NO":999,"REV_AT_EPOCH":10142,"BSTAR":0.00010327,"MEAN_MOTION_DOT":1.192e-5,"MEAN_MOTION_DDOT":0},{"OBJECT_NAME":"STARLINK-30545","OBJECT_ID":"2023-153K","EPOCH":"2025-07-30T07:18:55.625472","MEAN_MOTION":15.02538043,"ECCENTRICITY":0.0001042,"INCLINATION":43.0009,"RA_OF_ASC_NODE":197.149,"ARG_OF_PERICENTER":283.4106,"MEAN_ANOMALY":76.662,"EPHEMERIS_TYPE":0,"CLASSIFICATION_TYPE":"U","NORAD_CAT_ID":58000,"ELEMENT_SET_NO":999,"REV_AT_EPOCH":10143,"BSTAR":5.6644e-5,"MEAN_MOTION_DOT":5.62e-6,"MEAN_MOTION_DDOT":0},{"OBJECT_NAME":"STARLINK-30535","OBJECT_ID":"2023-153L","EPOCH":"2025-07-30T05:38:24.524448","MEAN_MOTION":15.02534022,"ECCENTRICITY":0.0001297,"INCLINATION":43.0024,"RA_OF_ASC_NODE":197.4863,"ARG_OF_PERICENTER":288.277,"MEAN_ANOMALY":71.7931,"EPHEMERIS_TYPE":0,"CLASSIFICATION_TYPE":"U","NORAD_CAT_ID":58001,"ELEMENT_SET_NO":999,"REV_AT_EPOCH":10142,"BSTAR":1.1016e-5,"MEAN_MOTION_DOT":-5.5e-7,"MEAN_MOTION_DDOT":0},{"OBJECT_NAME":"STARLINK-30540","OBJECT_ID":"2023-153M","EPOCH":"2025-07-30T06:31:07.535136","MEAN_MOTION":15.02608988,"ECCENTRICITY":0.0001709,"INCLINATION":43.0016,"RA_OF_ASC_NODE":197.7447,"ARG_OF_PERICENTER":282.1318,"MEAN_ANOMALY":77.9333,"EPHEMERIS_TYPE":0,"CLASSIFICATION_TYPE":"U","NORAD_CAT_ID":58002,"ELEMENT_SET_NO":999,"REV_AT_EPOCH":10131,"BSTAR":-0.0010698,"MEAN_MOTION_DOT":-0.00014653,"MEAN_MOTION_DDOT":0},{"OBJECT_NAME":"STARLINK-30546","OBJECT_ID":"2023-153N","EPOCH":"2025-07-30T05:33:36.922176","MEAN_MOTION":15.02538982,"ECCENTRICITY":0.0001541,"INCLINATION":43.0022,"RA_OF_ASC_NODE":197.4603,"ARG_OF_PERICENTER":307.9193,"MEAN_ANOMALY":52.151,"EPHEMERIS_TYPE":0,"CLASSIFICATION_TYPE":"U","NORAD_CAT_ID":58003,"ELEMENT_SET_NO":999,"REV_AT_EPOCH":10142,"BSTAR":3.2412e-5,"MEAN_MOTION_DOT":2.34e-6,"MEAN_MOTION_DDOT":0},{"OBJECT_NAME":"STARLINK-30539","OBJECT_ID":"2023-153P","EPOCH":"2025-07-30T05:28:49.184256","MEAN_MOTION":15.02533473,"ECCENTRICITY":0.0001319,"INCLINATION":43.0027,"RA_OF_ASC_NODE":197.4382,"ARG_OF_PERICENTER":285.6678,"MEAN_ANOMALY":74.4018,"EPHEMERIS_TYPE":0,"CLASSIFICATION_TYPE":"U","NORAD_CAT_ID":58004,"ELEMENT_SET_NO":999,"REV_AT_EPOCH":10141,"BSTAR":1.3467e-5,"MEAN_MOTION_DOT":-2.2e-7,"MEAN_MOTION_DDOT":0},{"OBJECT_NAME":"STARLINK-30530","OBJECT_ID":"2023-153Q","EPOCH":"2025-07-30T10:06:25.092000","MEAN_MOTION":15.0254461,"ECCENTRICITY":0.0001488,"INCLINATION":43.002,"RA_OF_ASC_NODE":196.3016,"ARG_OF_PERICENTER":321.4831,"MEAN_ANOMALY":38.5905,"EPHEMERIS_TYPE":0,"CLASSIFICATION_TYPE":"U","NORAD_CAT_ID":58005,"ELEMENT_SET_NO":999,"REV_AT_EPOCH":10145,"BSTAR":-0.00010642,"MEAN_MOTION_DOT":-1.641e-5,"MEAN_MOTION_DDOT":0},{"OBJECT_NAME":"STARLINK-30526","OBJECT_ID":"2023-153R","EPOCH":"2025-07-29T08:54:50.545440","MEAN_MOTION":15.02535899,"ECCENTRICITY":0.00013,"INCLINATION":43.0013,"RA_OF_ASC_NODE":176.9959,"ARG_OF_PERICENTER":272.3333,"MEAN_ANOMALY":87.7361,"EPHEMERIS_TYPE":0,"CLASSIFICATION_TYPE":"U","NORAD_CAT_ID":58006,"ELEMENT_SET_NO":999,"REV_AT_EPOCH":10157,"BSTAR":2.5126e-5,"MEAN_MOTION_DOT":1.36e-6,"MEAN_MOTION_DDOT":0},{"OBJECT_NAME":"STARLINK-30527","OBJECT_ID":"2023-153S","EPOCH":"2025-07-29T17:57:06.258240","MEAN_MOTION":15.2757764,"ECCENTRICITY":0.000128,"INCLINATION":43.0019,"RA_OF_ASC_NODE":17.4353,"ARG_OF_PERICENTER":278.0044,"MEAN_ANOMALY":82.0662,"EPHEMERIS_TYPE":0,"CLASSIFICATION_TYPE":"U","NORAD_CAT_ID":58007,"ELEMENT_SET_NO":999,"REV_AT_EPOCH":10336,"BSTAR":4.151e-5,"MEAN_MOTION_DOT":8.8e-6,"MEAN_MOTION_DDOT":0},{"OBJECT_NAME":"STARLINK-30522","OBJECT_ID":"2023-153T","EPOCH":"2025-07-30T10:39:58.931712","MEAN_MOTION":15.02532658,"ECCENTRICITY":0.0001284,"INCLINATION":43.0022,"RA_OF_ASC_NODE":196.4716,"ARG_OF_PERICENTER":271.2652,"MEAN_ANOMALY":88.8043,"EPHEMERIS_TYPE":0,"CLASSIFICATION_TYPE":"U","NORAD_CAT_ID":58008,"ELEMENT_SET_NO":999,"REV_AT_EPOCH":10144,"BSTAR":-0.00011185,"MEAN_MOTION_DOT":-1.714e-5,"MEAN_MOTION_DDOT":0},{"OBJECT_NAME":"STARLINK-30486","OBJECT_ID":"2023-153U","EPOCH":"2025-07-29T16:38:11.858784","MEAN_MOTION":15.02535953,"ECCENTRICITY":0.0001331,"INCLINATION":43.0025,"RA_OF_ASC_NODE":200.2963,"ARG_OF_PERICENTER":285.4147,"MEAN_ANOMALY":74.6549,"EPHEMERIS_TYPE":0,"CLASSIFICATION_TYPE":"U","NORAD_CAT_ID":58009,"ELEMENT_SET_NO":999,"REV_AT_EPOCH":10123,"BSTAR":-4.3977e-6,"MEAN_MOTION_DOT":-2.63e-6,"MEAN_MOTION_DDOT":0},{"OBJECT_NAME":"STARLINK-30520","OBJECT_ID":"2023-153V","EPOCH":"2025-07-29T16:23:58.976736","MEAN_MOTION":15.02532953,"ECCENTRICITY":0.0001493,"INCLINATION":43.0022,"RA_OF_ASC_NODE":201.0697,"ARG_OF_PERICENTER":299.6216,"MEAN_ANOMALY":60.4477,"EPHEMERIS_TYPE":0,"CLASSIFICATION_TYPE":"U","NORAD_CAT_ID":58010,"ELEMENT_SET_NO":999,"REV_AT_EPOCH":10122,"BSTAR":2.4918e-5,"MEAN_MOTION_DOT":1.33e-6,"MEAN_MOTION_DDOT":0},{"OBJECT_NAME":"STARLINK-30497","OBJECT_ID":"2023-153W","EPOCH":"2025-07-29T16:19:11.283744","MEAN_MOTION":15.02533062,"ECCENTRICITY":0.0001469,"INCLINATION":43.0016,"RA_OF_ASC_NODE":201.0437,"ARG_OF_PERICENTER":291.0871,"MEAN_ANOMALY":68.9814,"EPHEMERIS_TYPE":0,"CLASSIFICATION_TYPE":"U","NORAD_CAT_ID":58011,"ELEMENT_SET_NO":999,"REV_AT_EPOCH":10132,"BSTAR":6.9551e-6,"MEAN_MOTION_DOT":-1.1e-6,"MEAN_MOTION_DDOT":0}]
